{
    "links": {
        "self": "http://www.neowsapp.com/rest/v1/neo/3092299?api_key=iIulBulltgU6a56xZRHN4H3l9WmuAYTsLGpBGhQ2"
    },
    "id": "3092299",
    "neo_reference_id": "3092299",
    "name": "(2001 KW18)",
    "designation": "2001 KW18",
    "nasa_jpl_url": "http://ssd.jpl.nasa.gov/sbdb.cgi?sstr=3092299",
    "absolute_magnitude_h": 26.0,
    "estimated_diameter": {
        "kilometers": {
            "estimated_diameter_min": 0.0167708462,
            "estimated_diameter_max": 0.0375007522
        },
        "meters": {
            "estimated_diameter_min": 16.7708462163,
            "estimated_diameter_max": 37.5007521798
        },
        "miles": {
            "estimated_diameter_min": 0.0104209175,
            "estimated_diameter_max": 0.0233018799
        },
        "feet": {
            "estimated_diameter_min": 55.0224631002,
            "estimated_diameter_max": 123.0339677816
        }
    },
    "is_potentially_hazardous_asteroid": false,
    "close_approach_data": [
        {
            "close_approach_date": "2001-05-24",
            "close_approach_date_full": "2001-May-24 15:11",
            "epoch_date_close_approach": 990717060000,
            "relative_velocity": {
                "kilometers_per_second": "4.278102866",
                "kilometers_per_hour": "15401.170317475",
                "miles_per_hour": "9569.6883008778"
            },
            "miss_distance": {
                "astronomical": "0.0339888726",
                "lunar": "13.2216714414",
                "kilometers": "5084662.944661362",
                "miles": "3159463.0475643156"
            },
            "orbiting_body": "Earth"
        }
    ],
    "orbital_data": {
        "orbit_id": "10",
        "orbit_determination_date": "2017-04-06 09:16:21",
        "first_observation_date": "2001-05-18",
        "last_observation_date": "2001-05-23",
        "data_arc_in_days": 5,
        "observations_used": 24,
        "orbit_uncertainty": "8",
        "minimum_orbit_intersection": ".0338208",
        "jupiter_tisserand_invariant": "5.145",
        "epoch_osculation": "2452050.5",
        "eccentricity": ".1578426396635407",
        "semi_major_axis": "1.242555851388185",
        "inclination": "7.219200372089201",
        "ascending_node_longitude": "61.82205802930728",
        "orbital_period": "505.9088831424374",
        "perihelion_distance": "1.046427555875696",
        "perihelion_argument": "181.4394992188677",
        "aphelion_distance": "1.438684146900675",
        "perihelion_time": "2452054.090100440423",
        "mean_anomaly": "357.4453183139929",
        "mean_motion": ".7115905887318505",
        "equinox": "J2000",
        "orbit_class": {
            "orbit_class_type": "AMO",
            "orbit_class_description": "Near-Earth asteroid orbits similar to that of 1221 Amor",
            "orbit_class_range": "1.017 AU < q (perihelion) < 1.3 AU"
        }
    },
    "is_sentry_object": false
}